OBJECT_NAME,OBJECT_ID,EPOCH,MEAN_MOTION,ECCENTRICITY,INCLINATION,RA_OF_ASC_NODE,ARG_OF_PERICENTER,MEAN_ANOMALY,EPHEMERIS_TYPE,CLASSIFICATION_TYPE,NORAD_CAT_ID,ELEMENT_SET_NO,REV_AT_EPOCH,BSTAR,MEAN_MOTION_DOT,MEAN_MOTION_DDOT
TIANZHOU-10,2026-102A,2026-06-08T12:43:02.663616,15.60445632,.00085483,41.4696,14.6734,8.8388,351.2600,0,U,69049,999,449,.29104009E-3,.24398E-3,0
QIANFAN-127,2026-104A,2026-06-09T02:34:48.527904,14.13752395,.0005399,88.9852,342.5242,156.0159,204.1280,0,U,69073,999,394,-.12115E+1,-.2113799E-1,0
QIANFAN-128,2026-104B,2026-06-08T22:59:10.151232,14.10976375,.0009584,88.9849,342.5586,119.0039,241.2107,0,U,69074,999,391,-.11363E+1,-.1899925E-1,0
QIANFAN-129,2026-104C,2026-06-08T23:41:07.625184,14.17755179,.0004453,88.9855,342.5250,176.3994,183.7228,0,U,69075,999,393,-.10873E+1,-.20479E-1,0
QIANFAN-130,2026-104D,2026-06-09T00:21:59.740128,14.15164142,.000491,88.9864,342.5477,111.0425,249.1287,0,U,69076,999,392,-.1502E-3,-.277E-5,0
QIANFAN-131,2026-104E,2026-06-09T01:18:31.149216,14.17061345,.0004056,88.9862,342.5346,125.3992,234.7576,0,U,69077,999,393,-.11757E-3,-.222E-5,0
QIANFAN-132,2026-104F,2026-06-08T22:56:42.527328,14.09996454,.0010187,88.9854,342.5584,97.6432,262.5910,0,U,69078,999,391,-.12451E+1,-.2034943E-1,0
QIANFAN-133,2026-104G,2026-06-09T01:55:33.938688,14.11911140,.0004725,88.9856,342.5389,73.6418,286.5287,0,U,69079,999,393,-.1236E+1,-.2086917E-1,0
QIANFAN-134,2026-104H,2026-06-08T22:23:02.040000,14.10753831,.0010434,88.9855,342.5566,95.2360,265.0016,0,U,69080,999,391,-.12024E+1,-.1995427E-1,0
QIANFAN-135,2026-104J,2026-06-09T01:38:25.723392,14.12209103,.0004778,88.9854,342.5374,101.3187,258.8536,0,U,69081,999,393,-.12117E+1,-.2059206E-1,0
QIANFAN-136,2026-104K,2026-06-08T23:50:10.993920,14.13434397,.0004156,88.9857,342.5444,165.2876,194.8432,0,U,69082,999,392,-.12036E+1,-.2089592E-1,0
QIANFAN-137,2026-104L,2026-06-09T03:08:41.680608,14.24908271,.0005679,88.9862,342.5087,128.7644,231.4057,0,U,69083,999,395,.37407E-4,.102E-5,0
QIANFAN-138,2026-104M,2026-06-09T01:11:06.025920,14.11834947,.0009241,88.9856,342.5337,105.7259,254.4946,0,U,69084,999,393,-.10935E+1,-.1859999E-1,0
QIANFAN-139,2026-104N,2026-06-09T01:03:51.337152,14.12292597,.0008434,88.9854,342.5335,111.6187,248.5898,0,U,69085,999,393,-.11463E+1,-.1958891E-1,0
QIANFAN-140,2026-104P,2026-06-09T00:56:21.455808,14.12972468,.0007127,88.9853,342.5322,118.5292,241.6612,0,U,69086,999,393,-.11351E+1,-.1963645E-1,0
QIANFAN-141,2026-104Q,2026-06-08T23:07:36.322176,14.13664996,.0004376,88.9857,342.5402,138.6253,221.5266,0,U,69087,999,392,-.11402E+1,-.1994995E-1,0
QIANFAN-142,2026-104R,2026-06-09T00:39:59.313312,14.14042332,.0005657,88.9849,342.5307,139.7837,220.3769,0,U,69088,999,393,-.10821E+1,-.1912657E-1,0
QIANFAN-143,2026-104S,2026-06-09T02:01:20.425152,14.15623126,.0006293,88.9852,342.5207,171.8378,188.2913,0,U,69089,999,394,-.11316E+1,-.2048812E-1,0
QIANFAN-144,2026-104T,2026-06-09T00:28:55.776864,14.13724936,.0006342,88.9857,342.5305,134.5074,225.6632,0,U,69090,999,393,-.10335E+1,-.1822342E-1,0
ZHUQUE-2E R/B,2026-105A,2026-06-08T11:42:36.406368,15.14953575,.04570661,88.9716,195.4534,331.6899,26.0164,0,U,69095,999,383,.37616139E-3,.153293E-2,-.700057E-6
2026-106A,2026-106A,2026-06-04T15:09:10.862208,15.11037132,.0013466,97.5095,237.9435,203.5034,156.5582,0,U,69097,999,308,.543886E-3,.9052E-4,0
2026-106B,2026-106B,2026-06-04T15:16:55.543008,15.09575067,.00142668,97.5082,237.9319,199.5733,160.4950,0,U,69098,999,308,.42602016E-3,.6796E-4,0
2026-106C,2026-106C,2026-06-04T15:08:24.576864,15.11076088,.00135546,97.5097,237.9445,204.3760,155.6830,0,U,69099,999,308,.53277866E-3,.8876E-4,0
2026-106D,2026-106D,2026-06-04T15:05:56.171040,15.11202473,.00131226,97.5062,237.9411,207.0214,153.0334,0,U,69100,999,308,.49447297E-3,.826E-4,0
2026-106E,2026-106E,2026-06-04T15:00:25.283232,15.11460406,.0015124,97.5073,237.9468,208.9127,151.1267,0,U,69101,999,308,.54174936E-3,.9128E-4,0
DRAGON CRS-34,2026-107A,2026-06-09T04:35:05.112096,15.49678250,.000689,51.6332,339.6717,149.5560,210.5830,0,U,69103,999,57055,.12924E-3,.6847E-4,0
QIANFAN-145,2026-108A,2026-06-08T20:41:41.237376,14.12475911,.0016678,89.0114,23.1478,130.8066,229.4569,0,U,69104,999,316,-.12354E+1,-.2108512E-1,0
QIANFAN-146,2026-108B,2026-06-09T01:37:19.605792,14.16392185,.0014512,89.0116,23.1052,154.3785,205.8126,0,U,69105,999,320,-.99342E+0,-.1840466E-1,0
